{"type": "FeatureCollection", "features": [ {"type": "Feature", "properties": {"norad_id": 43108, "name": "BEIDOU-3 M8 (C28)", "group": "beidou", "lat": 29.68272930451087, "lon": -27.24861332329082, "alt_km": 21531.710883618114, "timestamp": "2025-12-13T13:34:35.310236+00:00", "meta": {"OBJECT_NAME": "BEIDOU-3 M8 (C28)", "OBJECT_ID": "2018-003B", "EPOCH": "2025-12-11T21:34:27.940800", "MEAN_MOTION": 1.86230629, "ECCENTRICITY": 0.00047751, "INCLINATION": 54.4899, "RA_OF_ASC_NODE": 308.8263, "ARG_OF_PERICENTER": 274.4182, "MEAN_ANOMALY": 85.5183, "EPHEMERIS_TYPE": 0, "CLASSIFICATION_TYPE": "U", "NORAD_CAT_ID": 43108, "ELEMENT_SET_NO": 999, "REV_AT_EPOCH": 5387, "BSTAR": 0, "MEAN_MOTION_DOT": -9e-07, "MEAN_MOTION_DDOT": 0}, "tle": {"line1": "1 43108U 18003B   25345.89893450 -.00000090  00000+0  00000+0 0  9991", "line2": "2 43108  54.4899 308.8263 0004775 274.4182  85.5183  1.86230629 53878"}}, "geometry": {"type": "Point", "coordinates": [-27.24861332329082, 29.68272930451087]}}, {"type": "Feature", "properties": {"norad_id": 43207, "name": "BEIDOU-3 M4 (C22)", "group": "beidou", "lat": 54.87470850408919, "lon": 179.1182991134425, "alt_km": 21521.853287241836, "timestamp": "2025-12-13T13:34:35.310247+00:00", "meta": {"OBJECT_NAME": "BEIDOU-3 M4 (C22)", "OBJECT_ID": "2018-018A", "EPOCH": "2025-12-10T17:31:13.270944", "MEAN_MOTION": 1.86230984, "ECCENTRICITY": 0.00041357, "INCLINATION": 56.4844, "RA_OF_ASC_NODE": 69.3703, "ARG_OF_PERICENTER": 10.5342, "MEAN_ANOMALY": 349.4961, "EPHEMERIS_TYPE": 0, "CLASSIFICATION_TYPE": "U", "NORAD_CAT_ID": 43207, "ELEMENT_SET_NO": 999, "REV_AT_EPOCH": 5323, "BSTAR": 0, "MEAN_MOTION_DOT": -5.7e-07, "MEAN_MOTION_DDOT": 0}, "tle": {"line1": "1 43207U 18018A   25344.73001471 -.00000057  00000+0  00000+0 0  9996", "line2": "2 43207  56.4844  69.3703 0004135  10.5342 349.4961  1.86230984 53235"}}, "geometry": {"type": "Point", "coordinates": [179.1182991134425, 54.87470850408919]}}, {"type": "Feature", "properties": {"norad_id": 43208, "name": "BEIDOU-3 M3 (C21)", "group": "beidou", "lat": 44.13085192402509, "lon": 109.22596008623688, "alt_km": 21525.769087903464, "timestamp": "2025-12-13T13:34:35.310257+00:00", "meta": {"OBJECT_NAME": "BEIDOU-3 M3 (C21)", "OBJECT_ID": "2018-018B", "EPOCH": "2025-12-10T19:07:00.567840", "MEAN_MOTION": 1.8623124, "ECCENTRICITY": 0.0006564, "INCLINATION": 56.484, "RA_OF_ASC_NODE": 69.3721, "ARG_OF_PERICENTER": 317.0111, "MEAN_ANOMALY": 42.9593, "EPHEMERIS_TYPE": 0, "CLASSIFICATION_TYPE": "U", "NORAD_CAT_ID": 43208, "ELEMENT_SET_NO": 999, "REV_AT_EPOCH": 5323, "BSTAR": 0, "MEAN_MOTION_DOT": -5.7e-07, "MEAN_MOTION_DDOT": 0}, "tle": {"line1": "1 43208U 18018B   25344.79653435 -.00000057  00000+0  00000+0 0  9996", "line2": "2 43208  56.4840  69.3721 0006564 317.0111  42.9593  1.86231240 53231"}}, "geometry": {"type": "Point", "coordinates": [109.22596008623688, 44.13085192402509]}}, {"type": "Feature", "properties": {"norad_id": 43245, "name": "BEIDOU-3 M9 (C29)", "group": "beidou", "lat": -54.33309815600833, "lon": -140.77397601659146, "alt_km": 21529.500790248432, "timestamp": "2025-12-13T13:34:35.310267+00:00", "meta": {"OBJECT_NAME": "BEIDOU-3 M9 (C29)", "OBJECT_ID": "2018-029A", "EPOCH": "2025-12-09T09:38:36.109248", "MEAN_MOTION": 1.86227964, "ECCENTRICITY": 0.00016746, "INCLINATION": 54.3687, "RA_OF_ASC_NODE": 306.5834, "ARG_OF_PERICENTER": 274.0787, "MEAN_ANOMALY": 85.8921, "EPHEMERIS_TYPE": 0, "CLASSIFICATION_TYPE": "U", "NORAD_CAT_ID": 43245, "ELEMENT_SET_NO": 999, "REV_AT_EPOCH": 5236, "BSTAR": 0, "MEAN_MOTION_DOT": -7.6e-07, "MEAN_MOTION_DDOT": 0}, "tle": {"line1": "1 43245U 18029A   25343.40180682 -.00000076  00000+0  00000+0 0  9996", "line2": "2 43245  54.3687 306.5834 0001674 274.0787  85.8921  1.86227964 52369"}}, "geometry": {"type": "Point", "coordinates": [-140.77397601659146, -54.33309815600833]}}, {"type": "Feature", "properties": {"norad_id": 43246, "name": "BEIDOU-3 M10 (C30)", "group": "beidou", "lat": -35.06612602671745, "lon": -83.76585601529288, "alt_km": 21524.658783674156, "timestamp": "2025-12-13T13:34:35.310277+00:00", "meta": {"OBJECT_NAME": "BEIDOU-3 M10 (C30)", "OBJECT_ID": "2018-029B", "EPOCH": "2025-12-12T13:24:42.846336", "MEAN_MOTION": 1.86228821, "ECCENTRICITY": 0.00040298, "INCLINATION": 54.3631, "RA_OF_ASC_NODE": 306.5011, "ARG_OF_PERICENTER": 0.3808, "MEAN_ANOMALY": 359.61, "EPHEMERIS_TYPE": 0, "CLASSIFICATION_TYPE": "U", "NORAD_CAT_ID": 43246, "ELEMENT_SET_NO": 999, "REV_AT_EPOCH": 5240, "BSTAR": 0, "MEAN_MOTION_DOT": -9.4e-07, "MEAN_MOTION_DDOT": 0}, "tle": {"line1": "1 43246U 18029B   25346.55882924 -.00000094  00000+0  00000+0 0  9994", "line2": "2 43246  54.3631 306.5011 0004029   0.3808 359.6100  1.86228821 52406"}}, "geometry": {"type": "Point", "coordinates": [-83.76585601529288, -35.06612602671745]}}, {"type": "Feature", "properties": {"norad_id": 43539, "name": "BEIDOU-2 IGSO-7 (C16)", "group": "beidou", "lat": -40.47166754514533, "lon": 21.145857260270102, "alt_km": 35406.31167823604, "timestamp": "2025-12-13T13:34:35.310288+00:00", "meta": {"OBJECT_NAME": "BEIDOU-2 IGSO-7 (C16)", "OBJECT_ID": "2018-057A", "EPOCH": "2025-12-12T21:40:21.690912", "MEAN_MOTION": 1.00257087, "ECCENTRICITY": 0.00924019, "INCLINATION": 55.1754, "RA_OF_ASC_NODE": 164.6693, "ARG_OF_PERICENTER": 235.1751, "MEAN_ANOMALY": 117.987, "EPHEMERIS_TYPE": 0, "CLASSIFICATION_TYPE": "U", "NORAD_CAT_ID": 43539, "ELEMENT_SET_NO": 999, "REV_AT_EPOCH": 2725, "BSTAR": 0, "MEAN_MOTION_DOT": -3.7e-07, "MEAN_MOTION_DDOT": 0}, "tle": {"line1": "1 43539U 18057A   25346.90302883 -.00000037  00000+0  00000+0 0  9997", "line2": "2 43539  55.1754 164.6693 0092401 235.1751 117.9870  1.00257087 27257"}}, "geometry": {"type": "Point", "coordinates": [21.145857260270102, -40.47166754514533]}}, {"type": "Feature", "properties": {"norad_id": 43581, "name": "BEIDOU-3 M5 (C23)", "group": "beidou", "lat": 12.529788559252307, "lon": -0.647711361717036, "alt_km": 21532.650932924644, "timestamp": "2025-12-13T13:34:35.310298+00:00", "meta": {"OBJECT_NAME": "BEIDOU-3 M5 (C23)", "OBJECT_ID": "2018-062A", "EPOCH": "2025-12-12T05:55:01.607232", "MEAN_MOTION": 1.86228672, "ECCENTRICITY": 0.00021016, "INCLINATION": 54.0891, "RA_OF_ASC_NODE": 188.6597, "ARG_OF_PERICENTER": 354.1416, "MEAN_ANOMALY": 5.9159, "EPHEMERIS_TYPE": 0, "CLASSIFICATION_TYPE": "U", "NORAD_CAT_ID": 43581, "ELEMENT_SET_NO": 999, "REV_AT_EPOCH": 5015, "BSTAR": 0, "MEAN_MOTION_DOT": 7.9e-07, "MEAN_MOTION_DDOT": 0}, "tle": {"line1": "1 43581U 18062A   25346.24654638  .00000079  00000+0  00000+0 0  9990", "line2": "2 43581  54.0891 188.6597 0002101 354.1416   5.9159  1.86228672 50154"}}, "geometry": {"type": "Point", "coordinates": [-0.647711361717036, 12.529788559252307]}}, {"type": "Feature", "properties": {"norad_id": 43582, "name": "BEIDOU-3 M6 (C24)", "group": "beidou", "lat": -51.86487486835582, "lon": 75.99820311039073, "alt_km": 21553.109526308126, "timestamp": "2025-12-13T13:34:35.310308+00:00", "meta": {"OBJECT_NAME": "BEIDOU-3 M6 (C24)", "OBJECT_ID": "2018-062B", "EPOCH": "2025-12-12T15:31:04.646784", "MEAN_MOTION": 1.86229838, "ECCENTRICITY": 0.00078852, "INCLINATION": 54.0888, "RA_OF_ASC_NODE": 188.6352, "ARG_OF_PERICENTER": 47.3846, "MEAN_ANOMALY": 312.743, "EPHEMERIS_TYPE": 0, "CLASSIFICATION_TYPE": "U", "NORAD_CAT_ID": 43582, "ELEMENT_SET_NO": 999, "REV_AT_EPOCH": 5016, "BSTAR": 0, "MEAN_MOTION_DOT": 8.5e-07, "MEAN_MOTION_DDOT": 0}, "tle": {"line1": "1 43582U 18062B   25346.64658156  .00000085  00000+0  00000+0 0  9991", "line2": "2 43582  54.0888 188.6352 0007885  47.3846 312.7430  1.86229838 50169"}}, "geometry": {"type": "Point", "coordinates": [75.99820311039073, -51.86487486835582]}}, {"type": "Feature", "properties": {"norad_id": 43602, "name": "BEIDOU-3 M12 (C26)", "group": "beidou", "lat": -45.7791517874439, "lon": 139.42459708959723, "alt_km": 21539.421088729454, "timestamp": "2025-12-13T13:34:35.310318+00:00", "meta": {"OBJECT_NAME": "BEIDOU-3 M12 (C26)", "OBJECT_ID": "2018-067A", "EPOCH": "2025-12-11T12:15:06.004224", "MEAN_MOTION": 1.86227612, "ECCENTRICITY": 0.00091491, "INCLINATION": 54.1831, "RA_OF_ASC_NODE": 187.4051, "ARG_OF_PERICENTER": 41.0073, "MEAN_ANOMALY": 319.1184, "EPHEMERIS_TYPE": 0, "CLASSIFICATION_TYPE": "U", "NORAD_CAT_ID": 43602, "ELEMENT_SET_NO": 999, "REV_AT_EPOCH": 4962, "BSTAR": 0, "MEAN_MOTION_DOT": 7.1e-07, "MEAN_MOTION_DDOT": 0}, "tle": {"line1": "1 43602U 18067A   25345.51048616  .00000071  00000+0  00000+0 0  9993", "line2": "2 43602  54.1831 187.4051 0009149  41.0073 319.1184  1.86227612 49626"}}, "geometry": {"type": "Point", "coordinates": [139.42459708959723, -45.7791517874439]}}, {"type": "Feature", "properties": {"norad_id": 43603, "name": "BEIDOU-3 M11 (C25)", "group": "beidou", "lat": -22.21570410374576, "lon": 24.46287032022681, "alt_km": 21546.792487408646, "timestamp": "2025-12-13T13:34:35.310328+00:00", "meta": {"OBJECT_NAME": "BEIDOU-3 M11 (C25)", "OBJECT_ID": "2018-067B", "EPOCH": "2025-12-12T04:22:00.818688", "MEAN_MOTION": 1.86227161, "ECCENTRICITY": 0.00055795, "INCLINATION": 54.1804, "RA_OF_ASC_NODE": 187.3462, "ARG_OF_PERICENTER": 36.7716, "MEAN_ANOMALY": 323.3248, "EPHEMERIS_TYPE": 0, "CLASSIFICATION_TYPE": "U", "NORAD_CAT_ID": 43603, "ELEMENT_SET_NO": 999, "REV_AT_EPOCH": 4966, "BSTAR": 0, "MEAN_MOTION_DOT": 8e-07, "MEAN_MOTION_DDOT": 0}, "tle": {"line1": "1 43603U 18067B   25346.18195392  .00000080  00000+0  00000+0 0  9992", "line2": "2 43603  54.1804 187.3462 0005579  36.7716 323.3248  1.86227161 49661"}}, "geometry": {"type": "Point", "coordinates": [24.46287032022681, -22.21570410374576]}}]}